[{"OBJECT_NAME":"JILIN-1 08","OBJECT_ID":"2018-008F","EPOCH":"2026-03-09T22:37:53.184288","MEAN_MOTION":15.32205976,"ECCENTRICITY":0.00081321,"INCLINATION":97.1902,"RA_OF_ASC_NODE":90.9961,"ARG_OF_PERICENTER":76.0646,"MEAN_ANOMALY":284.15,"EPHEMERIS_TYPE":0,"CLASSIFICATION_TYPE":"U","NORAD_CAT_ID":43160,"ELEMENT_SET_NO":999,"REV_AT_EPOCH":44974,"BSTAR":0.00036689195,"MEAN_MOTION_DOT":0.00011349,"MEAN_MOTION_DDOT":0},{"OBJECT_NAME":"STARLINK-32712","OBJECT_ID":"2024-251B","EPOCH":"2026-03-09T22:20:57.193728","MEAN_MOTION":15.30216568,"ECCENTRICITY":0.00022377,"INCLINATION":53.1619,"RA_OF_ASC_NODE":334.3063,"ARG_OF_PERICENTER":150.1412,"MEAN_ANOMALY":209.9717,"EPHEMERIS_TYPE":0,"CLASSIFICATION_TYPE":"U","NORAD_CAT_ID":62433,"ELEMENT_SET_NO":999,"REV_AT_EPOCH":6798,"BSTAR":0.0013565253,"MEAN_MOTION_DOT":0.00040056,"MEAN_MOTION_DDOT":0}]
